[
    {
        "Altitude(m)": 704678.8128714625,
        "Argument of Periapsis(deg)": 0.0,
        "Eccentricity": 0.0,
        "Inclination(deg)": 45.0,
        "Latitude(deg)": 32.41854521245882,
        "Longitude(deg)": 5.857923267747442,
        "Mean Anomaly(deg)": -229.09089999999998,
        "RAAN(deg)": 325.0,
        "Satellite Name": "Constellation 1 1438",
        "Satellite Number": 1438,
        "Semi-Major Axis(m)": 7083131.272910544,
        "Time(s)": 0
    },
    {
        "Altitude(m)": 704672.8761152835,
        "Argument of Periapsis(deg)": 5.994800624540561e-05,
        "Eccentricity": 0.0,
        "Inclination(deg)": 45.0,
        "Latitude(deg)": 32.38511057251335,
        "Longitude(deg)": 5.913837874309106,
        "Mean Anomaly(deg)": -229.03019885975016,
        "RAAN(deg)": 324.9999434108344,
        "Satellite Name": "Constellation 1 1438",
        "Satellite Number": 1438,
        "Semi-Major Axis(m)": 7083131.272910544,
        "Time(s)": 1
    },
    {
        "Altitude(m)": 704666.940944762,
        "Argument of Periapsis(deg)": 0.00011989601249081122,
        "Eccentricity": 0.0,
        "Inclination(deg)": 45.0,
        "Latitude(deg)": 32.35164720681999,
        "Longitude(deg)": 5.969708287884103,
        "Mean Anomaly(deg)": -228.9694977195002,
        "RAAN(deg)": 324.99988682166884,
        "Satellite Name": "Constellation 1 1438",
        "Satellite Number": 1438,
        "Semi-Major Axis(m)": 7083131.272910544,
        "Time(s)": 2
    },
    {
        "Altitude(m)": 704661.0073991012,
        "Argument of Periapsis(deg)": 0.00017984401873621686,
        "Eccentricity": 0.0,
        "Inclination(deg)": 45.0,
        "Latitude(deg)": 32.31815517281179,
        "Longitude(deg)": 6.025534560287117,
        "Mean Anomaly(deg)": -228.9087965792503,
        "RAAN(deg)": 324.99983023250326,
        "Satellite Name": "Constellation 1 1438",
        "Satellite Number": 1438,
        "Semi-Major Axis(m)": 7083131.272910544,
        "Time(s)": 3
    },
    {
        "Altitude(m)": 704655.0755174976,
        "Argument of Periapsis(deg)": 0.00023979202498162244,
        "Eccentricity": 0.0,
        "Inclination(deg)": 45.0,
        "Latitude(deg)": 32.28463452784914,
        "Longitude(deg)": 6.0813167434462105,
        "Mean Anomaly(deg)": -228.84809543900042,
        "RAAN(deg)": 324.99977364333773,
        "Satellite Name": "Constellation 1 1438",
        "Satellite Number": 1438,
        "Semi-Major Axis(m)": 7083131.272910544,
        "Time(s)": 4
    },
    {
        "Altitude(m)": 704649.1453391626,
        "Argument of Periapsis(deg)": 0.00029974003122702807,
        "Eccentricity": 0.0,
        "Inclination(deg)": 45.0,
        "Latitude(deg)": 32.251085329220025,
        "Longitude(deg)": 6.137054889401163,
        "Mean Anomaly(deg)": -228.78739429875048,
        "RAAN(deg)": 324.99971705417215,
        "Satellite Name": "Constellation 1 1438",
        "Satellite Number": 1438,
        "Semi-Major Axis(m)": 7083131.272910544,
        "Time(s)": 5
    },
    {
        "Altitude(m)": 704643.2169033147,
        "Argument of Periapsis(deg)": 0.00035968803747243373,
        "Eccentricity": 0.0,
        "Inclination(deg)": 45.0,
        "Latitude(deg)": 32.21750763413951,
        "Longitude(deg)": 6.192749050303303,
        "Mean Anomaly(deg)": -228.72669315850058,
        "RAAN(deg)": 324.99966046500657,
        "Satellite Name": "Constellation 1 1438",
        "Satellite Number": 1438,
        "Semi-Major Axis(m)": 7083131.272910544,
        "Time(s)": 6
    },
    {
        "Altitude(m)": 704637.2902491863,
        "Argument of Periapsis(deg)": 0.00041963604371783933,
        "Eccentricity": 0.0,
        "Inclination(deg)": 45.0,
        "Latitude(deg)": 32.18390149974995,
        "Longitude(deg)": 6.24839911031665,
        "Mean Anomaly(deg)": -228.6659920182507,
        "RAAN(deg)": 324.999603875841,
        "Satellite Name": "Constellation 1 1438",
        "Satellite Number": 1438,
        "Semi-Major Axis(m)": 7083131.272910544,
        "Time(s)": 7
    },
    {
        "Altitude(m)": 704631.3654160097,
        "Argument of Periapsis(deg)": 0.0004795840499632449,
        "Eccentricity": 0.0,
        "Inclination(deg)": 45.0,
        "Latitude(deg)": 32.15026698312178,
        "Longitude(deg)": 6.304005458006013,
        "Mean Anomaly(deg)": -228.6052908780008,
        "RAAN(deg)": 324.9995472866754,
        "Satellite Name": "Constellation 1 1438",
        "Satellite Number": 1438,
        "Semi-Major Axis(m)": 7083131.272910544,
        "Time(s)": 8
    },
    {
        "Altitude(m)": 704625.4424430275,
        "Argument of Periapsis(deg)": 0.0005395320562086505,
        "Eccentricity": 0.0,
        "Inclination(deg)": 45.0,
        "Latitude(deg)": 32.116604141251806,
        "Longitude(deg)": 6.359567977753417,
        "Mean Anomaly(deg)": -228.54458973775095,
        "RAAN(deg)": 324.9994906975099,
        "Satellite Name": "Constellation 1 1438",
        "Satellite Number": 1438,
        "Semi-Major Axis(m)": 7083131.272910544,
        "Time(s)": 9
    },
    {
        "Altitude(m)": 704619.5213694907,
        "Argument of Periapsis(deg)": 0.0005994800624540561,
        "Eccentricity": 0.0,
        "Inclination(deg)": 45.0,
        "Latitude(deg)": 32.08291303106429,
        "Longitude(deg)": 6.4150867221454995,
        "Mean Anomaly(deg)": -228.48388859750096,
        "RAAN(deg)": 324.99943410834425,
        "Satellite Name": "Constellation 1 1438",
        "Satellite Number": 1438,
        "Semi-Major Axis(m)": 7083131.272910544,
        "Time(s)": 10
    },
    {
        "Altitude(m)": 704613.6022346556,
        "Argument of Periapsis(deg)": 0.0006594280686994618,
        "Eccentricity": 0.0,
        "Inclination(deg)": 45.0,
        "Latitude(deg)": 32.04919370941076,
        "Longitude(deg)": 6.470561743875288,
        "Mean Anomaly(deg)": -228.42318745725112,
        "RAAN(deg)": 324.9993775191787,
        "Satellite Name": "Constellation 1 1438",
        "Satellite Number": 1438,
        "Semi-Major Axis(m)": 7083131.272910544,
        "Time(s)": 11
    },
    {
        "Altitude(m)": 704607.6850777864,
        "Argument of Periapsis(deg)": 0.0007193760749448675,
        "Eccentricity": 0.0,
        "Inclination(deg)": 45.0,
        "Latitude(deg)": 32.01544623306982,
        "Longitude(deg)": 6.525993095741766,
        "Mean Anomaly(deg)": -228.36248631700118,
        "RAAN(deg)": 324.99932093001314,
        "Satellite Name": "Constellation 1 1438",
        "Satellite Number": 1438,
        "Semi-Major Axis(m)": 7083131.272910544,
        "Time(s)": 12
    },
    {
        "Altitude(m)": 704601.7699381489,
        "Argument of Periapsis(deg)": 0.000779324081190273,
        "Eccentricity": 0.0,
        "Inclination(deg)": 45.0,
        "Latitude(deg)": 31.981670658747348,
        "Longitude(deg)": 6.581380830648402,
        "Mean Anomaly(deg)": -228.30178517675134,
        "RAAN(deg)": 324.9992643408476,
        "Satellite Name": "Constellation 1 1438",
        "Satellite Number": 1438,
        "Semi-Major Axis(m)": 7083131.272910544,
        "Time(s)": 13
    },
    {
        "Altitude(m)": 704595.8568550276,
        "Argument of Periapsis(deg)": 0.0008392720874356787,
        "Eccentricity": 0.0,
        "Inclination(deg)": 45.0,
        "Latitude(deg)": 31.94786704307598,
        "Longitude(deg)": 6.6367250016030015,
        "Mean Anomaly(deg)": -228.24108403650143,
        "RAAN(deg)": 324.99920775168204,
        "Satellite Name": "Constellation 1 1438",
        "Satellite Number": 1438,
        "Semi-Major Axis(m)": 7083131.272910544,
        "Time(s)": 14
    },
    {
        "Altitude(m)": 704589.945867699,
        "Argument of Periapsis(deg)": 0.0008992200936810842,
        "Eccentricity": 0.0,
        "Inclination(deg)": 45.0,
        "Latitude(deg)": 31.914035442615443,
        "Longitude(deg)": 6.692025493619199,
        "Mean Anomaly(deg)": -228.1803828962515,
        "RAAN(deg)": 324.9991511625164,
        "Satellite Name": "Constellation 1 1438",
        "Satellite Number": 1438,
        "Semi-Major Axis(m)": 7083131.272910544,
        "Time(s)": 15
    },
    {
        "Altitude(m)": 704584.0370154552,
        "Argument of Periapsis(deg)": 0.0009591680999264898,
        "Eccentricity": 0.0,
        "Inclination(deg)": 45.0,
        "Latitude(deg)": 31.880175913853257,
        "Longitude(deg)": 6.747282696103676,
        "Mean Anomaly(deg)": -228.11968175600163,
        "RAAN(deg)": 324.9990945733509,
        "Satellite Name": "Constellation 1 1438",
        "Satellite Number": 1438,
        "Semi-Major Axis(m)": 7083131.272910544,
        "Time(s)": 16
    },
    {
        "Altitude(m)": 704578.1303375921,
        "Argument of Periapsis(deg)": 0.0010191161061718953,
        "Eccentricity": 0.0,
        "Inclination(deg)": 45.0,
        "Latitude(deg)": 31.846288513202953,
        "Longitude(deg)": 6.802496494273725,
        "Mean Anomaly(deg)": -228.0589806157517,
        "RAAN(deg)": 324.9990379841853,
        "Satellite Name": "Constellation 1 1438",
        "Satellite Number": 1438,
        "Semi-Major Axis(m)": 7083131.272910544,
        "Time(s)": 17
    },
    {
        "Altitude(m)": 704572.2258734051,
        "Argument of Periapsis(deg)": 0.001079064112417301,
        "Eccentricity": 0.0,
        "Inclination(deg)": 45.0,
        "Latitude(deg)": 31.81237329700558,
        "Longitude(deg)": 6.857666941543486,
        "Mean Anomaly(deg)": -227.99827947550185,
        "RAAN(deg)": 324.99898139501977,
        "Satellite Name": "Constellation 1 1438",
        "Satellite Number": 1438,
        "Semi-Major Axis(m)": 7083131.272910544,
        "Time(s)": 18
    }
]